CZ-4B R/B               
1 27432U 02024C   23311.74448516  .00000169  00000+0  11132-3 0  9991
2 27432  99.0082 347.6440 0049322 280.7433 188.5256 14.14253744108743
MIDORI II (ADEOS-II)    
1 27597U 02056A   23312.44716638  .00000893  00000+0  37707-3 0  9999
2 27597  98.6644 255.4240 0001139  32.8902 327.2350 14.28076577 88587
H-2A R/B                
1 27601U 02056E   23311.85518185  .00000685  00000+0  26002-3 0  9991
2 27601  98.2072 295.3268 0071388 183.6622 239.0248 14.32530141 91930
CZ-4B R/B               
1 28059U 03049C   23311.77851297  .00001267  00000+0  31174-3 0  9990
2 28059  98.5791 263.3657 0048670 316.1187  43.6146 14.53400177 62610
CZ-2C R/B               
1 28222U 04012C   23312.49263642  .00013572  00000+0  61260-3 0  9995
2 28222  97.8089 311.7047 0040228 100.5132 260.0638 15.20381079 73371
SL-16 R/B               
1 28353U 04021B   23311.45701912  .00000078  00000+0  65454-4 0  9999
2 28353  71.0003 222.7316 0007331 258.6117 101.4182 14.14357927  2182
CZ-4B R/B               
1 28415U 04035C   23312.33685129  .00007128  00000+0  40107-3 0  9992
2 28415  97.4540 346.0993 0047135  72.0611 288.5750 15.12592025 50396
CZ-2C R/B               
1 28480U 04046B   23311.49103311  .00000486  00000+0  19754-3 0  9994
2 28480  98.1326 266.0405 0141507 157.5751 203.1699 14.26151810986849
ARIANE 5 R/B            
1 28499U 04049H   23311.83732123  .00002803  00000+0  33968-3 0  9992
2 28499  98.1545  80.2450 0088439 231.4140 247.0631 14.81727619 19360
CZ-2D R/B               
1 28738U 05024B   23312.49083591  .00011738  00000+0  53465-3 0  9994
2 28738  97.3600 310.3122 0009102 192.8710 167.2295 15.20793060  8921
SUZAKU (ASTRO-EII)      
1 28773U 05025A   23311.36761661  .00030747  00000+0  91181-3 0  9998
2 28773  31.3892 196.6043 0001708 145.8183 214.2579 15.33646553 12633
ALOS (DAICHI)           
1 28931U 06002A   23312.48693554  .00002774  00000+0  52953-3 0  9992
2 28931  98.0071 265.8761 0002221 103.2615 256.8836 14.64723774948880
H-2A R/B                
1 28932U 06002B   23312.16418806  .00010043  00000+0  80416-3 0  9996
2 28932  98.2289  26.7318 0078727 216.1304 143.4583 14.97938135966165
RESURS-DK 1             
1 29228U 06021A   23312.18202090  .00004601  00000+0  32408-3 0  9995
2 29228  69.9350 270.4182 0005748 323.9171  36.1603 15.05719806958914
GENESIS 1               
1 29252U 06029A   23311.04315769  .00021897  00000+0  74557-3 0  9999
2 29252  64.5183 194.2174 0006926 216.7806 143.2849 15.30402557956351
CZ-4B R/B               
1 29507U 06046C   23311.82982347  .00006414  00000+0  44440-3 0  9995
2 29507  97.6746 344.2344 0041090 315.5294  44.2636 15.05304188931295
CZ-2C R/B               
1 31114U 07010B   23311.40898430  .00000500  00000+0  25145-3 0  9998
2 31114  98.3008  95.9381 0058387 256.9398 102.5257 14.19651594858624
COSMO-SKYMED 1          
1 31598U 07023A   23312.49897574  .00001429  00000+0  18597-3 0  9990
2 31598  97.8866 133.8976 0001541  86.3815 273.7574 14.82154981888362
GENESIS 2               
1 31789U 07028A   23311.52311488  .00016744  00000+0  57720-3 0  9992
2 31789  64.4922 237.3081 0047796 242.0735 117.5550 15.29055127903358
COSMOS 2428             
1 31792U 07029A   23312.07382532  .00000443  00000+0  26508-3 0  9995
2 31792  70.9345 192.7722 0008954 348.3177  11.7735 14.12601074843758
SL-16 R/B               
1 31793U 07029B   23311.62866656  .00000103  00000+0  78384-4 0  9993
2 31793  70.9752 165.2246 0002530 264.9869 156.3633 14.14570602844727
KORONAS-FOTON           
1 33504U 09003A   23311.58417025  .00009564  00000+0  41130-3 0  9994
2 33504  82.4393  67.3494 0015877 304.6360  55.3379 15.22396372815117
CZ-2C R/B               
1 37731U 11030B   23311.79652902  .00002885  00000+0  40966-3 0  9996
2 37731  97.7339 279.3821 0055824 240.7636 183.7969 14.76637972664028
H-2A R/B                
1 38341U 12025E   23311.72072880  .00004916  00000+0  54343-3 0  9994
2 38341  98.4353 204.4082 0051560 207.1189 152.7330 14.86942379621191
CUSAT 2 & FALCON 9 R/B  
1 39271U 13055G   23312.46571488  .00048571 -95082-7  76359-3 0  9990
2 39271  80.9453 341.6972 0392009 316.7616  40.3427 14.97839300531944
SHIJIAN-16 (SJ-16)      
1 39358U 13057A   23312.47719888  .00003597  00000+0  39596-3 0  9995
2 39358  74.9754 352.9705 0018608   8.9283 351.2230 14.87751022544635
CZ-2C R/B               
1 39364U 13059B   23312.07869292  .00050120  00000+0  81275-3 0  9990
2 39364  97.0849 356.2289 0025517 289.1426  70.7065 15.52234908558474
SL-4 R/B                
1 39679U 14021B   23311.42668698  .00012372  00000+0  50767-3 0  9993
2 39679  51.6104 100.2472 0147172 292.4027  66.1412 15.15216692525940
ALOS-2                  
1 39766U 14029A   23312.47732970  .00006539  00000+0  88185-3 0  9992
2 39766  97.9231  47.3025 0001295  96.1261 264.0098 14.79463284510897
SL-27 R/B               
1 40354U 14084B   23312.49941053  .00031300  00000+0  40059-3 0  9996
2 40354  74.7313 326.8272 0026487 254.7443 105.0850 15.58619087499842
YAOGAN-29               
1 41038U 15069A   23312.44854656  .00001223  00000+0  16358-3 0  9993
2 41038  98.0634 320.5428 0001007 196.2257 163.8923 14.81333359429638
ASTRO-H (HITOMI)        
1 41337U 16012A   23312.03179496  .00004738  00000+0  34608-3 0  9993
2 41337  31.0033  65.9813 0011492  86.5758 273.6193 15.02032592423579
HXMT (HUIYAN)           
1 42758U 17034A   23312.49123663  .00009704  00000+0  53606-3 0  9998
2 42758  43.0152  62.4398 0004053 229.5857 130.4637 15.14037557353222
CZ-2C R/B               
1 43521U 18054D   23312.38557105  .00015074  00000+0  61022-3 0  9998
2 43521  35.1515  72.6486 0065490 292.3657  67.0130 15.21864673296993
SAOCOM 1A               
1 43641U 18076A   23311.96726438  .00001232  00000+0  16126-3 0  9991
2 43641  97.8867 136.3967 0001486  85.5736 274.5646 14.82172144275050
H-2A R/B                
1 43682U 18084L   23312.14264132  .00010319  00000+0  61141-3 0  9997
2 43682  98.8806 359.0434 0049175  29.0378 331.3567 15.10611589275938
SAOCOM 1B               
1 46265U 20059A   23312.47107072  .00001234  00000+0  16149-3 0  9991
2 46265  97.8869 135.9760 0001373  92.0950 268.0420 14.82154197172523
CSS (TIANHE)            
1 48274U 21035A   23312.49070946  .00045973  00000+0  52584-3 0  9990
2 48274  41.4727 357.3579 0003330  82.0051 278.1166 15.61333904144393
COSMOS 2550             
1 48865U 21056A   23312.05876158 -.00000097  00000+0  28937-5 0  9996
2 48865  67.1395 100.3025 0008420 271.1855  88.8335 15.33831679132713
2022-019U               
1 51842U 22019U   23312.48044484  .00055042  00000+0  11988-2 0  9995
2 51842  97.5231  42.8909 0045496 185.2660 174.8115 15.42974786 94640
CZ-2C R/B               
1 52794U 22058K   23312.18079301  .00014577  00000+0  65311-3 0  9996
2 52794  50.1723 246.0566 0089273 318.4933  40.9265 15.17884802 79349
CZ-2C R/B               
1 53131U 22082D   23312.13381928  .00055812  00000+0  66422-3 0  9996
2 53131  97.3382 330.8205 0029592  69.1914 291.2509 15.60403727 74122
XRISM                   
1 57800U 23137A   23312.47067871  .00007462  00000+0  60171-3 0  9993
2 57800  31.0052 340.8459 0010430 174.2655 185.8101 14.98537551  9375
